[{"OBJECT_NAME":"SAUDISAT 4","OBJECT_ID":"2014-033G","EPOCH":"2026-03-09T23:14:52.668960","MEAN_MOTION":14.79390687,"ECCENTRICITY":0.00457103,"INCLINATION":97.7413,"RA_OF_ASC_NODE":218.6273,"ARG_OF_PERICENTER":37.8064,"MEAN_ANOMALY":322.6344,"EPHEMERIS_TYPE":0,"CLASSIFICATION_TYPE":"U","NORAD_CAT_ID":40016,"ELEMENT_SET_NO":999,"REV_AT_EPOCH":63140,"BSTAR":0.00014306526,"MEAN_MOTION_DOT":1.033e-5,"MEAN_MOTION_DDOT":0},{"OBJECT_NAME":"ALOS (DAICHI)","OBJECT_ID":"2006-002A","EPOCH":"2026-03-09T20:14:22.842816","MEAN_MOTION":14.69811163,"ECCENTRICITY":9.045e-5,"INCLINATION":98.1218,"RA_OF_ASC_NODE":24.7979,"ARG_OF_PERICENTER":55.8758,"MEAN_ANOMALY":304.2533,"EPHEMERIS_TYPE":0,"CLASSIFICATION_TYPE":"U","NORAD_CAT_ID":28931,"ELEMENT_SET_NO":999,"REV_AT_EPOCH":7350,"BSTAR":0.00032296065,"MEAN_MOTION_DOT":1.879e-5,"MEAN_MOTION_DDOT":0}]
